{"type": "FeatureCollection", "features": [{"type": "Feature", "geometry": {"type": "Point", "coordinates": [-91.2847, 40.8286]}, "properties": {"site_id": "", "name": "Iowa Army Ammunition Plant", "type": "superfund"}}, {"type": "Feature", "geometry": {"type": "Point", "coordinates": [-91.5122, 41.6764]}, "properties": {"site_id": "", "name": "Aidex Corp", "type": "superfund"}}, {"type": "Feature", "geometry": {"type": "Point", "coordinates": [-93.6091, 41.6005]}, "properties": {"site_id": "", "name": "Des Moines TCE", "type": "superfund"}}, {"type": "Feature", "geometry": {"type": "Point", "coordinates": [-93.6342, 41.5942]}, "properties": {"site_id": "", "name": "Shaw Avenue Dump", "type": "superfund"}}, {"type": "Feature", "geometry": {"type": "Point", "coordinates": [-91.7853, 42.8183]}, "properties": {"site_id": "", "name": "Lawrence Todtz Farm", "type": "superfund"}}, {"type": "Feature", "geometry": {"type": "Point", "coordinates": [-93.88, 42.0644]}, "properties": {"site_id": "", "name": "Peoples Natural Gas Co", "type": "superfund"}}, {"type": "Feature", "geometry": {"type": "Point", "coordinates": [-93.201, 43.1536]}, "properties": {"site_id": "", "name": "Mason City Coal Gas Plant", "type": "superfund"}}, {"type": "Feature", "geometry": {"type": "Point", "coordinates": [-91.2508, 42.7606]}, "properties": {"site_id": "", "name": "Mid-America Tanning Co", "type": "superfund"}}, {"type": "Feature", "geometry": {"type": "Point", "coordinates": [-91.5303, 41.65]}, "properties": {"site_id": "", "name": "Electro-Coatings Inc", "type": "superfund"}}, {"type": "Feature", "geometry": {"type": "Point", "coordinates": [-90.6683, 42.4703]}, "properties": {"site_id": "", "name": "Vogel Paint & Wax Co", "type": "superfund"}}, {"type": "Feature", "geometry": {"type": "Point", "coordinates": [-92.7261, 41.7231]}, "properties": {"site_id": "", "name": "Sheller-Globe Corp Disposal", "type": "superfund"}}, {"type": "Feature", "geometry": {"type": "Point", "coordinates": [-91.5297, 41.6558]}, "properties": {"site_id": "", "name": "Iowa City FCW Plant", "type": "superfund"}}, {"type": "Feature", "geometry": {"type": "Point", "coordinates": [-90.6644, 42.5006]}, "properties": {"site_id": "", "name": "John Deere Dubuque Works", "type": "superfund"}}, {"type": "Feature", "geometry": {"type": "Point", "coordinates": [-91.6681, 42.0308]}, "properties": {"site_id": "", "name": "Alhambra Smelter", "type": "superfund"}}, {"type": "Feature", "geometry": {"type": "Point", "coordinates": [-91.1831, 42.9342]}, "properties": {"site_id": "", "name": "LaBounty Site", "type": "superfund"}}, {"type": "Feature", "geometry": {"type": "Point", "coordinates": [-93.8125, 42.4694]}, "properties": {"site_id": "", "name": "White Farm Equipment", "type": "superfund"}}, {"type": "Feature", "geometry": {"type": "Point", "coordinates": [-92.7136, 42.1742]}, "properties": {"site_id": "", "name": "Farmers Mutual Cooperative", "type": "superfund"}}, {"type": "Feature", "geometry": {"type": "Point", "coordinates": [-93.1917, 43.1489]}, "properties": {"site_id": "", "name": "Northwestern States Portland Cement", "type": "superfund"}}, {"type": "Feature", "geometry": {"type": "Point", "coordinates": [-91.0131, 42.1381]}, "properties": {"site_id": "", "name": "Midwest Manufacturing/North Farm", "type": "superfund"}}, {"type": "Feature", "geometry": {"type": "Point", "coordinates": [-91.0297, 41.0417]}, "properties": {"site_id": "", "name": "E.I. du Pont de Nemours (County Road 75)", "type": "superfund"}}, {"type": "Feature", "geometry": {"type": "Point", "coordinates": [-91.5944, 41.7192]}, "properties": {"site_id": "", "name": "Chemplex Co", "type": "superfund"}}, {"type": "Feature", "geometry": {"type": "Point", "coordinates": [-93.7892, 41.0722]}, "properties": {"site_id": "", "name": "Solvent Recovery Co of New England", "type": "superfund"}}]}